{"type":"Topology","objects":{"data":{"geometries":[{"properties":{"district":"Cheltenham","name":"Cheltenham"},"type":"Polygon","arcs":[[-1,-12]],"id":"feature_0"},{"properties":{"district":"Cotswold","name":"Cotswold"},"type":"Polygon","arcs":[[-5,-13,0,-11,1]],"id":"feature_1"},{"properties":{"district":"Forest of Dean","name":"Forest of Dean"},"type":"Polygon","arcs":[[-9,2]],"id":"feature_2"},{"properties":{"district":"Gloucester","name":"Gloucester"},"type":"Polygon","arcs":[[-15,-4]],"id":"feature_3"},{"properties":{"district":"Stroud","name":"Stroud"},"type":"Polygon","arcs":[[-7,3,-14,4,5]],"id":"feature_4"},{"properties":{"district":"Tewkesbury","name":"Tewkesbury"},"type":"Polygon","arcs":[[6,7,8,9,10,11,12,13,14]],"id":"feature_5"}],"type":"GeometryCollection"}},"bbox":[-2.68768372053148,51.5775902726423,-1.61518927059618,52.1125925556367],"transform":{"scale":[0.00010726017101063108,5.350557885732625e-05],"translate":[-2.68768372053148,51.5775902726423]},"arcs":[[[5752,5372],[105,-10],[114,-115],[101,110],[90,0],[13,1],[39,224],[58,152],[1,81],[0,2],[43,263]],[[7912,8021],[35,45],[-4,249],[100,158],[-47,59],[1,2],[2,91],[-88,88],[-75,48],[-152,132],[6,187],[-20,53],[-62,-16],[-3,122],[27,36],[126,11],[20,-39],[63,132],[139,-124],[119,236],[58,-124],[89,323],[72,88],[43,-12],[14,117],[203,116],[149,-297],[122,-99],[93,163],[4,-349],[-6,-185],[151,-93],[25,127],[76,-11],[-32,-244],[52,-95],[88,2],[-36,-285],[234,-55],[27,-52],[0,-2],[46,-38],[46,39],[2,3],[57,14],[1,-2],[236,83],[61,-100],[1,-32],[-22,-78],[-77,-10],[-96,-125],[-72,-238],[-2,-2],[-31,-27],[-1,0],[-185,-245],[39,-105],[7,-82],[0,-8],[-37,-137],[43,-166],[111,-93],[-28,-75],[46,17],[1,2],[32,-18],[139,-40],[157,-331],[-283,-288],[41,-13],[-35,-147],[94,-15],[10,-139],[5,-110],[-133,-88],[-31,20],[-2,-3],[-61,26],[-106,-293],[17,-84],[-184,-215],[76,-235],[21,-49],[-93,-296],[49,-344],[40,18],[-52,-255],[-2,-2],[-10,-36],[-333,-339],[175,-236],[54,-411],[73,-163],[14,-173],[-96,-128],[20,-41],[108,-233],[155,-221],[75,-15],[75,-202],[5,-5],[6,-25],[-188,-68],[-63,38],[-31,124],[-5,1],[-34,17],[-98,48],[-130,-172],[-38,-169],[2,-8],[-78,-77],[-185,-45],[-136,-97],[-117,8],[-37,99],[-62,27],[-109,-45],[-61,130],[2,13],[-58,201],[-100,332],[-61,-16],[-9,-150],[65,-155],[-98,-215],[0,-1],[72,-204],[-234,-137],[-95,2],[-155,340],[-1,1],[-62,150],[-181,-105],[-53,51],[17,-95],[1,-2],[91,-270],[103,-131],[-113,-78],[-145,134],[-158,23],[-195,244],[-1,1],[-96,-48],[-53,-152],[-48,-19],[114,-404],[-167,55],[-80,-35],[8,98],[-78,-3],[-97,152],[-143,-46],[-98,117],[-138,80],[-199,244],[-153,-244],[-1,-2],[-320,-530],[-215,-371],[-200,-388],[-207,109],[-44,73],[-98,-141],[-23,62],[-131,2],[-9,139],[-216,-155],[-1,-1],[-65,-32],[-39,-23],[-30,-200],[-208,25],[-48,-96],[-37,43],[-58,-26],[18,53],[-60,34],[35,34],[-98,67],[22,96]],[[3128,5029],[-46,-201],[63,-115],[-95,-44],[-25,-85],[27,-299],[116,-81],[-46,-107],[-141,-49],[-313,187],[-122,242],[-77,40],[-165,-124],[-105,-257],[32,-261],[65,-65],[280,-31],[53,-36],[10,-94],[-276,-239],[-24,-13],[-25,-7],[-2,56],[-10,-48],[10,-13],[19,6],[-372,-355],[2,-9],[-14,-85],[-158,-149],[-89,-311],[-270,-180],[-60,-16],[44,21],[-45,-22],[-119,-143],[-44,2],[17,35],[-134,-108],[-5,9],[44,81],[-54,-90],[-22,-55],[-328,-244],[-149,-221],[23,-122],[-80,-159],[-156,-266],[11,-337],[-33,-66],[-46,9],[-30,118],[39,116],[-114,204],[13,85],[-27,127],[-102,2],[-5,79],[111,150],[30,85],[0,53],[-27,18],[-92,-100],[-71,49],[29,105],[141,5],[84,47],[18,37],[-4,44],[-143,115],[39,180],[-7,42],[-9,23],[-38,53],[-90,60],[18,38],[52,-57],[52,12],[15,22],[3,96],[-104,130],[-8,97],[-25,132],[-42,95],[145,90],[24,124],[64,212],[-99,109],[-67,169],[51,152],[-8,206],[59,118],[-82,166],[54,105],[121,33],[-12,226],[100,26],[-1,37],[43,84],[3,13],[80,220],[74,-74],[197,191],[2,7],[10,43],[64,84],[124,-126],[69,39],[-60,151],[43,32],[177,49],[240,-71],[17,-2],[63,47],[70,111],[104,306],[63,20],[15,-85],[53,47],[7,-79],[57,8],[10,80],[55,19],[69,-3],[3,41],[1,3],[72,95],[179,18],[63,104],[-57,19],[49,35],[-59,237],[-163,215],[-37,201],[42,36],[-19,232],[-77,90],[-116,17],[-38,-46],[-99,104],[17,60],[63,7],[-25,317],[59,118],[164,138],[-62,100],[-73,4],[-54,190],[35,20],[0,2],[76,102],[4,101],[119,22],[34,-34],[-9,-140],[255,3],[23,-125],[-34,-200],[152,-55],[205,36],[57,314],[55,-15],[332,172],[-10,-146],[108,-125],[141,-30],[48,-245],[-58,-295],[82,-6],[1,1],[63,-5],[16,-97],[84,-72],[114,72],[165,-32]],[[3628,4760],[-24,-103],[47,-52],[59,-48],[21,-41],[29,-31],[23,-26],[178,-160],[52,236],[6,22],[97,87],[87,-10],[87,51],[39,-132],[153,191],[37,71],[1,1],[23,33],[21,25],[97,124]],[[5160,4529],[98,-182],[57,-19],[-18,-108],[36,-73],[297,-197],[10,-196],[85,-187],[-156,-52],[-112,27],[-34,-431],[52,-61],[101,116],[87,-63],[3,-81],[103,-2],[-34,-72],[-102,9],[18,-115],[-29,-25],[-406,-67],[-54,-50],[7,-251],[89,-46],[-58,-166],[-100,39],[-86,-187],[-85,-56],[-48,78],[-103,4],[-52,-58],[-135,72],[-1,0],[-49,26],[-53,-118],[-52,-81],[68,-13],[37,-129],[122,-81],[-43,-197],[-378,21],[-92,246],[-213,79],[-57,86],[-146,-42],[10,-119],[40,-12],[-19,-67],[-55,-11],[51,-46],[-80,-202],[-210,-193],[73,-63],[-150,-181],[87,-145],[192,140],[157,-250],[24,-86],[-61,-57],[-101,-333]],[[3692,301],[-45,24],[-34,-65],[-76,25],[-77,-56],[-31,76],[-104,-43],[-29,94],[-10,-45],[-83,0],[1,42],[-82,4],[-119,132],[-47,-115],[-187,-9],[-53,56],[12,89],[59,350],[-3,78],[-107,129],[115,47],[21,51],[-104,-7],[22,48],[-38,69],[-55,-83],[-112,36],[-55,42],[-1,1],[-178,123],[-1,1],[-10,2],[-1,-3],[-24,-53],[-89,51],[-6,4],[0,-2],[1,-6],[-28,-11],[-11,17],[-19,-1],[-1,0],[-77,-87],[-125,-31],[-4,-4],[-13,-10],[-47,-4],[53,67],[-75,66],[0,1],[15,43],[-1,6],[17,174],[-180,38],[-240,211],[243,168],[174,260],[11,-3],[-8,-9],[3,-28],[29,24],[16,-43],[-2,51],[-21,-4],[-18,-21],[10,28],[30,151],[26,330],[89,7],[213,258],[157,-67],[42,45],[430,384],[22,159],[-38,151],[-273,192],[-207,17],[-94,64],[-17,95],[98,245],[113,121],[111,-182],[351,-234],[194,23],[83,134],[-21,89],[-111,98],[-21,197],[17,91],[105,52],[-68,104],[24,169],[182,114],[262,-84],[31,-191]],[[3628,4760],[-35,58]],[[3593,4818],[-11,161],[-9,34],[-29,27],[-237,66],[-179,-77]],[[3128,5029],[-5,51],[55,95],[220,32],[56,74],[2,1],[-2,32],[-1,2],[1,73],[0,3],[-1,9],[0,3],[1,1],[0,11],[1,4],[-1,5],[-1,2],[-70,14],[-89,124],[34,80],[101,165],[44,-4],[72,8],[164,105],[-57,42],[-12,117],[116,158],[-23,182],[34,43],[-109,186],[69,229],[61,2],[-18,117],[147,25],[-28,294]],[[3889,7314],[149,-37],[11,-3],[306,536],[165,17],[166,-109],[53,80],[-16,87],[58,-63],[99,7],[-4,144],[-181,181],[-33,97],[100,65],[-35,359],[87,109],[123,49],[371,-151],[20,-131],[-87,-84],[-132,-56],[-103,-393],[73,-45],[36,-5],[-26,-77],[62,-2],[34,116],[97,101],[29,57],[87,-1],[103,-23],[119,-48],[225,78],[10,-88],[76,-23],[19,-92],[42,-3],[62,18],[1,92],[85,9],[51,129],[234,238],[31,-58],[103,174],[285,25],[11,5],[46,-104],[89,-2],[1,0],[63,-29],[38,120],[45,-20],[81,166],[127,-132],[350,-373],[7,-90],[210,-110]],[[7912,8021],[197,-100],[103,24],[48,-108],[-98,-166],[-282,-4],[-213,137],[-38,-29],[-131,-187],[140,-56],[-65,-170],[8,-120],[-210,-89],[-54,38],[21,90],[-96,42],[-53,-125],[-58,6],[-81,-104],[77,-422],[45,16],[291,-179],[-45,-123],[49,-43],[-10,-101],[181,-71],[-46,-103],[-4,-3],[-65,-105],[242,-19],[11,-44],[-78,-69],[-106,73],[-13,-69],[-76,29],[7,52],[-129,0],[-53,-136],[-98,11],[-141,165],[5,110],[-1,7],[-112,79],[-151,-81],[-2,-1],[-57,1],[-184,119],[-121,113],[-59,-204],[-86,33],[-5,-55]],[[6316,6080],[-98,-6],[-2,0],[-23,-3],[-20,2],[-2,2],[-8,3],[-2,2],[-64,28],[-36,59],[46,79],[-72,50],[4,148],[-92,38],[-162,98],[-63,25],[-68,11],[-79,7],[-157,129],[30,-290],[-69,-135],[-43,18],[-90,36],[-49,-162],[-11,-36],[-94,-310],[-14,-57],[0,-7],[6,-73],[152,54],[-15,-144],[42,64],[37,-21],[92,-52],[15,-6],[50,-54],[26,30],[19,24],[49,-144],[62,36],[46,-42],[8,40],[42,-84],[54,0],[-11,-65]],[[5752,5372],[-11,-90],[-95,-99],[-152,31],[14,-100],[-99,-158],[82,8],[-57,-146],[-2,-3],[-75,-14],[24,-118],[-64,-132],[-157,-22]],[[5160,4529],[-174,60],[-67,27],[-183,257],[10,65],[-85,60]],[[4661,4998],[10,22],[39,98],[26,53],[4,6],[-67,134],[-22,24],[-30,25],[-41,23],[-11,114],[-1,4],[-18,112],[5,50],[-92,72],[-89,6],[-87,-51],[-6,-3],[-88,23],[-83,-43],[-126,-98],[-42,3],[-25,-10],[-17,-129],[-53,-115],[-116,-47],[83,-275],[-64,-73],[-56,-146],[-66,-17]]]}